satname,norad_id,inclination_deg,eccentricity,mean_motion_rev_per_day,perigee_km,apogee_km,l1,l2
STARLINK-1008,44714,53.1278,0.0001119,15.25009413,489.9885392187807,491.525797733686,1 44714U 19074B   26025.91668981  .01620612  00000+0  58081-1 0  9994,2 44714  53.1278  17.6338 0001119  97.3075 121.8785 15.25009413  5781
STARLINK-1012,44718,53.1574,0.0001646,15.30872816,472.07916670900613,474.33462912019877,1 44718U 19074F   26025.91668981  .00182104  00000+0  58877-2 0  9990,2 44718  53.1574  17.4937 0001646  83.3270 333.0650 15.30872816  5783
STARLINK-1017,44723,53.0468,0.0001131,15.20688752,502.98351496792566,504.540200489545,1 44723U 19074L   26025.67147674  .00075874  00000+0  33889-2 0  9991,2 44723  53.0468   9.3909 0001131 109.1733 250.9385 15.20688752342418
STARLINK-1019,44724,53.0499,0.0010365,15.67859386,358.0384174141982,372.01699785312394,1 44724U 19074M   26025.91668981  .00238179  00000+0  20611-2 0  9996,2 44724  53.0499 349.7564 0010365  49.2935   9.1420 15.67859386  5995
STARLINK-1020,44725,53.0547,0.0001332,15.06412785,546.2499228231654,548.0948252404078,1 44725U 19074N   26025.36014362  .00001222  00000+0  10086-3 0  9997,2 44725  53.0547  41.1322 0001332 102.8884 257.2254 15.06412785341937
STARLINK-1031,44736,53.0467,0.0007034,15.73036655,345.49118877796445,354.9566469171914,1 44736U 19074Z   26025.91668981  .00217274  00000+0  15215-2 0  9996,2 44736  53.0467 335.2441 0007034  83.1088 234.4272 15.73036655  5959
STARLINK-1036,44741,53.0557,0.0001715,15.46252887,426.53199673545896,428.8663985512503,1 44741U 19074AE  26025.57580137  .00111652  00000+0  22093-2 0  9995,2 44741  53.0557  35.8101 0001715  60.3326 299.7851 15.46252887342030
STARLINK-1039,44744,53.0499,0.0003897,15.17836409,509.6956427316709,515.0661123654327,1 44744U 19074AH  26025.80315839  .00037072  00000+0  18155-2 0  9996,2 44744  53.0499  51.6500 0003897  58.9123 301.2253 15.17836409341836
STARLINK-1042,44747,53.0461,0.000374,15.47465363,421.599656990732,426.68776296179476,1 44747U 19074AL  26025.09191843  .00032934  00000+0  63715-3 0  9992,2 44747  53.0461 303.5994 0003740  69.1894 290.9514 15.47465363343319
STARLINK-1043,44748,53.0543,0.0002374,15.50451967,413.7927197202698,417.0182937024565,1 44748U 19074AM  26025.91668981  .00132475  00000+0  22567-2 0  9996,2 44748  53.0543  40.4010 0002374   2.7750  70.1135 15.50451967  5954
STARLINK-1046,44751,53.0549,0.0003085,15.38735732,447.7403667899616,451.95323279443437,1 44751U 19074AQ  26025.37189890  .00099194  00000+0  25295-2 0  9998,2 44751  53.0549  56.1134 0003085  45.4404 314.6851 15.38735732341736
STARLINK-1047,44752,53.0713,0.0004754,15.31486262,468.1209521253895,474.6334702373806,1 44752U 19074AR  26025.17996830  .00017362  00000+0  57359-3 0  9991,2 44752  53.0713 349.0993 0004754  83.1805 276.9736 15.31486262342675
STARLINK-1048,44753,53.0558,0.0002585,15.42135361,438.04583497858584,441.57071268515665,1 44753U 19074AS  26025.22875034  .00132673  00000+0  30079-2 0  9992,2 44753  53.0558  17.0693 0002585  70.0713 290.0570 15.42135361342266
STARLINK-1053,44758,53.0337,0.0003239,15.7602006,339.55348297781984,343.9066128514587,1 44758U 19074AX  26025.74248328  .00158251  00000+0  98288-3 0  9991,2 44758  53.0337 299.9440 0003239 113.8646 246.2712 15.76020060343409
STARLINK-1060,44765,53.0411,0.0002079,15.97439343,280.14151768481133,282.9106055858392,1 44765U 19074BE  26025.91668981  .00438936  90875-4  97213-3 0  9991,2 44765  53.0411 339.1678 0002079 101.3818 158.1671 15.97439343  6068
STARLINK-1063,44768,53.1343,0.0001238,15.24466607,491.5370063702658,493.2381482556084,1 44768U 19074BH  26025.91668981  .01681676  00000+0  61020-1 0  9997,2 44768  53.1343  57.9760 0001238 106.7116   6.9475 15.24466607  5782
STARLINK-1067,44771,53.0544,0.0004732,15.46090281,424.9556324643354,431.39712744712597,1 44771U 19074BL  26025.49221048  .00143495  00000+0  28404-2 0  9994,2 44771  53.0544  52.1455 0004732  54.7427 305.4022 15.46090281341801
STARLINK-1068,44772,53.0534,0.0001599,15.52917336,407.12830419161855,409.2985790628518,1 44772U 19074BM  26025.91668981  .00178202  00000+0  27610-2 0  9995,2 44772  53.0534  27.7637 0001599  89.4211 284.1230 15.52917336  5880
STARLINK-1112,44925,53.0407,0.0001804,15.80553323,327.6648980572636,330.0847879302164,1 44925U 20001M   26025.91668981  .00223143  00000+0  11213-2 0  9994,2 44925  53.0407  99.8736 0001804 302.9446 158.7332 15.80553323  6020
STARLINK-1114,44927,53.0525,0.0002254,15.42717198,436.5575253441102,439.6302822355392,1 44927U 20001P   26025.91668981  .00128765  00000+0  28648-2 0  9990,2 44927  53.0525 173.5358 0002254 328.2054 135.5733 15.42717198  5790
STARLINK-1123,44930,53.0548,0.0001389,15.06414017,546.2066732376225,548.1305231327988,1 44930U 20001S   26025.79693497  .00005411  00000+0  38171-3 0  9995,2 44930  53.0548 179.1728 0001389  73.2672 286.8469 15.06414017333382
STARLINK-1144,44933,53.0329,0.0007336,15.96197413,280.09194236255826,289.86806763229106,1 44933U 20001V   26025.91668981  .00432607  87187-4  10233-2 0  9997,2 44933  53.0329  70.5423 0007336  13.8662 290.9904 15.96197413  5940
STARLINK-1094,44941,53.124,0.0001441,15.22457194,497.4407029012673,499.42252997652395,1 44941U 20001AD  26025.91668981  .01647929  00000+0  63578-1 0  9995,2 44941  53.1240 158.1183 0001441 110.1065  36.5051 15.22457194  5780
STARLINK-1122,44949,53.1247,0.0001126,15.22510177,497.4977965256503,499.0463638505089,1 44949U 20001AM  26025.91668981  .01605177  00000+0  61994-1 0  9992,2 44949  53.1247 158.1059 0001126  84.5050 307.4480 15.22510177  5838
STARLINK-1080,44961,53.0528,0.0004643,15.41383892,438.8574560375064,445.190657594866,1 44961U 20001AZ  26025.63684988  .00110504  00000+0  25773-2 0  9990,2 44961  53.0528 132.9254 0004643 334.3282  25.7491 15.41383892334021
STARLINK-1090,44968,53.0538,0.0001526,15.06416721,546.1035105859246,548.2171113252289,1 44968U 20001BG  26025.70109191  .00005894  00000+0  41409-3 0  9993,2 44968  53.0538 139.6024 0001526 101.8924 258.2236 15.06416721333933
STARLINK-1132,45044,53.1594,0.0001692,15.36849109,454.2774005067258,456.5898808115253,1 45044U 20006A   26025.51554271  .00070648  00000+0  19257-2 0  9990,2 45044  53.1594  97.6829 0001692  80.7891 279.3304 15.36849109330277
STARLINK-1131,45047,53.0834,0.0001276,15.13766377,523.8454717269324,525.6070824352428,1 45047U 20006D   26025.91668981  .01301297  00000+0  65785-1 0  9995,2 45047  53.0834 119.0745 0001276  88.7556  48.8510 15.13766377  5789
STARLINK-1134,45048,53.0346,0.0004625,15.37523682,450.2751191129755,456.59432295493207,1 45048U 20006E   26025.56314311  .00030348  00000+0  81940-3 0  9990,2 45048  53.0346  82.5462 0004625  50.4648 309.6763 15.37523682330490
STARLINK-1156,45054,53.0546,0.0001007,15.07010249,544.6446694936103,546.0390581367819,1 45054U 20006L   26025.80588740  .00255015  00000+0  16260-1 0  9994,2 45054  53.0546 119.1298 0001007  60.1822 299.9267 15.07010249329996
STARLINK-1159,45057,53.0482,0.0003962,15.67079486,364.5922742328321,369.9373306210755,1 45057U 20006P   26025.41413760  .00149542  00000+0  13548-2 0  9997,2 45057  53.0482  90.2940 0003962 314.2983  45.7707 15.67079486330378
STARLINK-1166,45060,53.0533,0.0001372,15.39159328,447.6573501691,449.5306051493699,1 45060U 20006S   26025.81383527  .00096804  00000+0  24358-2 0  9995,2 45060  53.0533 116.0992 0001372  58.6169 301.4969 15.39159328330040
STARLINK-1169,45061,53.065,0.0001214,15.10172781,534.8332704866953,536.5119434592689,1 45061U 20006T   26025.91668981  .00043836  00000+0  26564-2 0  9995,2 45061  53.0650 118.6117 0001214  69.3958   4.7570 15.10172781  5731
STARLINK-1171,45062,53.049,0.0006607,15.48308307,417.1819442979795,426.1672153195386,1 45062U 20006U   26025.60240914  .00103999  00000+0  19178-2 0  9994,2 45062  53.0490  97.2600 0006607 237.1224 122.9147 15.48308307330296
STARLINK-1133,45064,53.1549,0.0001136,15.2935534,476.95940517829786,478.51706003114487,1 45064U 20006W   26025.91668981  .00011349  00000+0  40501-3 0  9990,2 45064  53.1549  96.4629 0001136  87.1851 100.6592 15.29355340  5831
STARLINK-1167,45071,53.1586,0.0001229,15.29323416,476.991042539481,478.6762401231208,1 45071U 20006AD  26025.91668981  .00011822  00000+0  42177-3 0  9995,2 45071  53.1586  96.2758 0001229  74.7291  79.1757 15.29323416  5836
STARLINK-1168,45072,53.1577,0.0001197,15.29357392,476.9114525373434,478.5527475998997,1 45072U 20006AE  26025.57180734 -.00002640  00000+0 -79190-4 0  9999,2 45072  53.1577  97.9362 0001197 112.1064 248.0063 15.29357392330271
STARLINK-1172,45074,53.1591,0.0001464,15.3014683,474.3704760669152,476.37718403795407,1 45074U 20006AG  26025.66671296  .00075486  00000+0  25392-2 0  9998,2 45074  53.1591  97.6645 0001464  64.8892 303.8616 15.30146830  5794
STARLINK-1153,45080,53.1588,0.0001165,15.29349947,476.95563866076645,478.5530613453175,1 45080U 20006AN  26025.48107651 -.00001503  00000+0 -39787-4 0  9990,2 45080  53.1588  98.2113 0001165  95.2616 264.8517 15.29349947330265
STARLINK-1151,45081,53.0519,0.0008026,15.49957733,411.3959420071378,422.3032544946509,1 45081U 20006AP  26025.54179078  .00104919  00000+0  18250-2 0  9993,2 45081  53.0519  88.7545 0008026 354.4535   5.6382 15.49957733330402
STARLINK-1185,45087,53.0533,0.0001416,15.06426377,546.1500995030701,548.111335320642,1 45087U 20006AV  26025.55181505  .00013749  00000+0  93947-3 0  9995,2 45087  53.0533  80.2729 0001416  86.8244 273.2906 15.06426377330520
STARLINK-1183,45088,53.0541,0.0001918,15.06408187,545.8581890352698,548.5147431168571,1 45088U 20006AW  26025.83931166  .00001909  00000+0  14699-3 0  9995,2 45088  53.0541  78.9813 0001918  86.6674 273.4535 15.06408187330563
STARLINK-1152,45096,53.043,0.0004431,15.33134213,463.43516965244,469.50085861596654,1 45096U 20006BE  26025.58037180  .00078817  00000+0  24134-2 0  9995,2 45096  53.0430  48.9693 0004431  55.6716 304.4703 15.33134213330960
